[{"OBJECT_NAME":"ONEWEB-0240","OBJECT_ID":"2021-045U","EPOCH":"2026-03-09T14:58:28.098912","MEAN_MOTION":13.1554678,"ECCENTRICITY":0.0001907,"INCLINATION":87.8957,"RA_OF_ASC_NODE":279.0506,"ARG_OF_PERICENTER":95.4095,"MEAN_ANOMALY":264.7253,"EPHEMERIS_TYPE":0,"CLASSIFICATION_TYPE":"U","NORAD_CAT_ID":48785,"ELEMENT_SET_NO":999,"REV_AT_EPOCH":23131,"BSTAR":-0.00017506,"MEAN_MOTION_DOT":-5.3e-7,"MEAN_MOTION_DDOT":0},{"OBJECT_NAME":"SL-14 DEB","OBJECT_ID":"1991-056BN","EPOCH":"2026-03-08T15:37:46.529472","MEAN_MOTION":13.20996142,"ECCENTRICITY":0.00237571,"INCLINATION":82.548,"RA_OF_ASC_NODE":198.6076,"ARG_OF_PERICENTER":313.4595,"MEAN_ANOMALY":46.4553,"EPHEMERIS_TYPE":0,"CLASSIFICATION_TYPE":"U","NORAD_CAT_ID":45324,"ELEMENT_SET_NO":999,"REV_AT_EPOCH":29224,"BSTAR":0.00055646869,"MEAN_MOTION_DOT":2.4e-6,"MEAN_MOTION_DDOT":0}]
